NOAA 1 [-]              
1 04793U 70106A   15269.22184748 -.00000034  00000-0  71569-4 0  9996
2 04793 101.8990 323.9675 0032004  29.1728  14.2461 12.53973449 50196
NOAA 2 [-]              
1 06235U 72082A   15269.49560619 -.00000035  00000-0  58986-4 0  9997
2 06235 101.5821 236.5542 0004064 121.7621 348.9123 12.53073872964576
NOAA 3 [-]              
1 06920U 73086A   15269.49830588 -.00000034  00000-0  74765-4 0  9990
2 06920 101.8437 242.3213 0006334 172.2699 299.0599 12.40353491896471
NOAA 4 [-]              
1 07529U 74089A   15269.50725728 -.00000039  00000-0  32428-4 0  9996
2 07529 101.5447 242.3468 0008829 158.6121 311.0402 12.53108302869163
NOAA 5 [-]              
1 09057U 76077A   15269.54801728 -.00000029  00000-0  10568-3 0  9991
2 09057 101.7664 262.7119 0010034  26.5616  87.1377 12.37771359770103
TIROS N [P]             
1 11060U 78096A   15269.55667835  .00000058  00000-0  50485-4 0  9995
2 11060  98.9826 304.2196 0010122 342.6747  17.4081 14.18066971123747
NOAA 6 [P]              
1 11416U 79057A   15269.52985816  .00000156  00000-0  72515-4 0  9994
2 11416  98.5179 254.2471 0009561 316.2979  43.7448 14.33245552889871
NOAA 7 [-]              
1 12553U 81059A   15269.55520623 -.00000002  00000-0  21410-4 0  9995
2 12553  98.9637 231.8890 0010517 244.8180 225.3216 14.17157192770151
NOAA 8 [-]              
1 13923U 83022A   15269.47119625  .00000086  00000-0  51348-4 0  9990
2 13923  98.4707 265.5246 0014669 210.7362 149.2962 14.28455898691982
NOAA 9 [P]              
1 15427U 84123A   15269.45275907  .00000041  00000-0  42834-4 0  9999
2 15427  98.7262 212.4340 0014278 322.8511 147.1277 14.15905372589250
NOAA 10 [-]             
1 16969U 86073A   15269.54812954  .00000052  00000-0  38175-4 0  9991
2 16969  98.4838 286.1476 0011546 331.3445 180.1784 14.27921956510570
NOAA 11 [-]             
1 19531U 88089A   15269.31125383  .00000009  00000-0  26445-4 0  9995
2 19531  98.6373 339.5960 0012000  48.5960 311.6243 14.15163211393669
NOAA 12 [-]             
1 21263U 91032A   15269.50691727  .00000029  00000-0  30553-4 0  9990
2 21263  98.6233 294.8739 0013008 323.5019 198.0046 14.25777830267001
NOAA 13 [-]             
1 22739U 93050A   15269.24158186  .00000024  00000-0  35783-4 0  9994
2 22739  98.6526 331.5613 0009866 166.6292 234.3773 14.12620513140508
NOAA 14 [-]             
1 23455U 94089A   15269.45164953 -.00000009  00000-0  17875-4 0  9991
2 23455  98.7469 348.7949 0010091 146.6569 271.0540 14.14053117 69849
NOAA 15 [B]             
1 25338U 98030A   15269.50110354  .00000083  00000-0  53858-4 0  9997
2 25338  98.7777 268.2305 0009680 230.9244 129.1075 14.25662700903270
NOAA 16 [-]             
1 26536U 00055A   15269.48842723  .00000017  00000-0  33351-4 0  9990
2 26536  98.9328 335.3213 0009652 309.7496  50.2825 14.13109186773961
NOAA 17 [-]             
1 27453U 02032A   15269.47784998  .00000016  00000-0  24415-4 0  9994
2 27453  98.3506 250.5101 0010531 243.7231 116.2868 14.24900055689083
NOAA 18 [B]             
1 28654U 05018A   15269.51876032  .00000056  00000-0  55935-4 0  9996
2 28654  99.1911 264.6679 0014976  39.8046 320.4221 14.12235327533379
NOAA 19 [+]             
1 33591U 09005A   15269.49988593  .00000149  00000-0  10603-3 0  9990
2 33591  99.0003 219.6711 0012986 243.4080 116.5761 14.11980612341781
NPP [+]                 
1 37849U 11061A   15269.45783714  .00000074  00000-0  55620-4 0  9995
2 37849  98.6909 207.0139 0001560 114.6322 353.1198 14.19556415202743
